HST                     
1 20580U 90037B   26068.15977042  .00009063  00000+0  30023-3 0  9999
2 20580  28.4717  43.6133 0001837 120.9992 239.0785 15.29473555773239
STARLINK-2720           
1 48653U 21044R   26068.81877654 -.00000252  00000+0  36232-5 0  9995
2 48653  53.1589 113.2604 0001337  89.4472 270.6682 15.30186760263845
